KAZEOSAT 1              
1 39731U 14024A   25022.47722765  .00000663  00000+0  21509-3 0  9999
2 39731  98.3748 101.1025 0001313  86.1926 273.9414 14.42015892564959
COSMOS 2496             
1 39761U 14028A   25022.50866270  .00000027  00000+0  12234-3 0  9999
2 39761  82.4427  68.6011 0020965 112.5169 247.8132 12.42882708484076
COSMOS 2497             
1 39762U 14028B   25022.47991534  .00000035  00000+0  17768-3 0  9994
2 39762  82.4474  70.1006 0021573 106.9940 253.3505 12.42898133484076
COSMOS 2498             
1 39763U 14028C   25022.49744871  .00000031  00000+0  14848-3 0  9999
2 39763  82.4436  68.8002 0022203 107.0932 253.2582 12.42956295484101
COSMOS 2499 (RS-47)     
1 39765U 14028E   25022.53391305  .00000025  00000+0  43152-4 0  9990
2 39765  82.4461 236.9914 0232352 120.4247 242.0038 12.82885305499540
HODOYOSHI-4             
1 40011U 14033B   25022.48597576  .00003676  00000+0  42474-3 0  9994
2 40011  97.5602 227.3319 0024002 193.4705 166.5873 14.85954131572901
UNISAT-6                
1 40012U 14033C   25022.16289558  .00007445  00000+0  89417-3 0  9994
2 40012  97.7216 182.5213 0048718 310.2238  49.4719 14.83414870570264
DEIMOS-2                
1 40013U 14033D   25022.47045193  .00004723  00000+0  48249-3 0  9998
2 40013  97.6537 268.4883 0000962 109.4682 250.6641 14.91051415561549
BUGSAT-1 (TITA)         
1 40014U 14033E   25022.49499239  .00009055  00000+0  57616-3 0  9996
2 40014  98.0965  81.5692 0033664 115.1088 245.3638 15.08571378578652
SAUDISAT 4              
1 40016U 14033G   25022.45566178  .00002233  00000+0  30973-3 0  9999
2 40016  97.6853 183.8945 0044710 296.4916  63.1714 14.78230960570589
APRIZESAT 9             
1 40018U 14033J   25022.34484779  .00001742  00000+0  26899-3 0  9991
2 40018  97.8299 165.7017 0068568  43.6171 317.0428 14.72996758568328
BRITE-CA1 (TORONTO)     
1 40020U 14033L   25022.24608431  .00003419  00000+0  53721-3 0  9993
2 40020  97.9026 158.3000 0082134 111.8832 249.1134 14.70956864567169
DUCHIFAT-1              
1 40021U 14033M   25022.48500027  .00035616  00000+0  16612-2 0  9993
2 40021  98.1014  25.7102 0012555  76.8519 283.4114 15.19703788577284
NANOSATC-BR1            
1 40024U 14033Q   25022.50179525  .00023530  00000+0  13473-2 0  9998
2 40024  98.0854  11.4714 0006617 132.0753 228.1040 15.12614192576293
QB50P1                  
1 40025U 14033R   25022.46238689  .00016889  00000+0  11417-2 0  9996
2 40025  98.0705 357.8788 0012092 153.2752 206.9100 15.06575970575816
DTUSAT-2                
1 40030U 14033W   25022.35477838  .00014971  00000+0  10640-2 0  9998
2 40030  98.0397 347.9825 0010614 154.6610 205.5137 15.04748054575589
FLOCK 1C-4              
1 40031U 14033X   25022.49400141  .00053434  00000+0  21643-2 0  9999
2 40031  98.0890  18.6131 0008358  95.2797 264.9393 15.24447949576415
QB50P2                  
1 40032U 14033Y   25022.44926132  .00016111  00000+0  11424-2 0  9995
2 40032  98.0274 347.9198 0010738 104.0769 256.1650 15.04815501575572
PERSEUS-M1              
1 40039U 14033AF  25022.24749236  .00004441  00000+0  43662-3 0  9991
2 40039  97.9202 315.7201 0012110 183.8708 176.2419 14.92596243574333
POLYITAN-1              
1 40042U 14033AJ  25022.46358912  .00024557  00000+0  14136-2 0  9999
2 40042  98.0941   3.6159 0013228 108.5154 251.7513 15.12357669575867
TIGRISAT                
1 40043U 14033AK  25022.42974685  .00005503  00000+0  69039-3 0  9990
2 40043  97.7141 182.4232 0051882 309.0651  50.5952 14.81614949570197
AISAT                   
1 40054U 14034B   25022.51698557  .00017897  00000+0  15958-2 0  9993
2 40054  98.3082 256.1980 0009782 117.9100 242.3111 14.96017837570520
CANX-4                  
1 40055U 14034C   25022.48872568  .00003182  00000+0  43194-3 0  9992
2 40055  98.3764 232.4292 0012482 205.7760 154.2829 14.79572500568966
CANX-5                  
1 40056U 14034D   25022.49233973  .00003218  00000+0  43664-3 0  9997
2 40056  98.3768 232.4478 0012471 205.9818 154.0767 14.79584676559776
VELOX-I                 
1 40057U 14034E   25022.43221754  .00011132  00000+0  11374-2 0  9992
2 40057  98.3131 254.5776 0008764 142.2757 217.9075 14.90744752570312
GONETS-M 10             
1 40063U 14036C   25022.41731450  .00000031  00000+0  14869-3 0  9997
2 40063  82.5083 264.8962 0021452 174.5739 185.5578 12.42926244478798
METEOR-M 2              
1 40069U 14037A   25022.49496187  .00000428  00000+0  21571-3 0  9995
2 40069  98.4554  13.1574 0006914  82.4653 277.7310 14.21197930546778
DX1                     
1 40071U 14037C   25022.47728323  .00005141  00000+0  57881-3 0  9996
2 40071  98.3369 311.2502 0008698 125.6528 234.5498 14.87094934570125
UKUBE-1                 
1 40074U 14037F   25022.34442303  .00019221  00000+0  14992-2 0  9995
2 40074  98.3738 333.1509 0002773  61.1012 299.0488 15.01213740571578
GAOFEN-2                
1 40118U 14049A   25022.45483963  .00002839  00000+0  37725-3 0  9993
2 40118  98.0823  80.2817 0006945  74.2138 285.9839 14.80551797563668
BRITE-PL2 (HEWELIUSZ)   
1 40119U 14049B   25022.33547221  .00004968  00000+0  50263-3 0  9996
2 40119  97.8841 127.4700 0015139   6.4668 353.6743 14.91361838565218
HODOYOSHI-1             
1 40299U 14070B   25022.45788812  .00187882  00000+0  89848-3 0  9993
2 40299  97.0989  89.5095 0003361 297.7529  62.3400 15.82269441569308
CBERS 4                 
1 40336U 14079A   25022.47255960  .00000411  00000+0  15769-3 0  9992
2 40336  98.3743  90.7769 0001768  73.0276 287.1104 14.35492162530689
SMAP                    
1 40376U 15003A   25022.51496131  .00001533  00000+0  30548-3 0  9994
2 40376  98.1295  31.8039 0001161  86.0683 274.0651 14.63407275532936
GONETS-M 11             
1 40552U 15020A   25022.49275473  .00000050  00000+0  28682-3 0  9999
2 40552  82.4890 349.1717 0017277  39.7045 320.5296 12.42886389445295
GONETS-M 12             
1 40553U 15020B   25022.46504426  .00000050  00000+0  28594-3 0  9992
2 40553  82.4924 350.1663 0015704  25.6936 334.4921 12.42895792445288
GONETS-M 13             
1 40554U 15020C   25022.43906824  .00000055  00000+0  32391-3 0  9993
2 40554  82.4885 348.9629 0013947  11.7979 348.3425 12.42885569445253
DMC3-FM1                
1 40715U 15032A   25022.48155415  .00002017  00000+0  24459-3 0  9998
2 40715  97.7196 260.6918 0004405 303.6029  56.4765 14.84661166514103
DMC3-FM2                
1 40716U 15032B   25022.50393601  .00001845  00000+0  22417-3 0  9993
2 40716  97.7252 261.9315 0006265 306.2252  53.8383 14.84659600514102
DMC3-FM3                
1 40717U 15032C   25022.47488805  .00002109  00000+0  25601-3 0  9993
2 40717  97.7305 263.2853 0007672 301.9099  58.1369 14.84563372514100
CARBONITE 1 (CBNT-1)    
1 40718U 15032D   25022.52189196  .00004815  00000+0  63080-3 0  9990
2 40718  97.6446 218.2123 0015229 163.6512 196.5195 14.80719392513694
DEORBITSAIL             
1 40719U 15032E   25021.87369974  .00015041  00000+0  14370-2 0  9992
2 40719  97.6588 244.7933 0012429 126.6064 233.6301 14.93300176514654
2015-049A               
1 40899U 15049A   25022.49833306  .00152303  00000+0  11964-2 0  9992
2 40899  97.4406  52.8045 0003182 196.9384 163.1773 15.71046577518555
2015-049G               
1 40905U 15049G   25022.51224002  .00024980  00000+0  66644-3 0  9995
2 40905  97.5145  41.2447 0007608 286.8202  73.2208 15.38098185517319
XW-2C                   
1 40906U 15049H   25022.50536261  .00368348  00000+0  13344-2 0  9995
2 40906  97.4455  55.7924 0003192 177.3659 182.7630 15.87671166518616
LILACSAT-2              
1 40908U 15049K   25022.49349576  .00019469  00000+0  59164-3 0  9994
2 40908  97.5179  39.8903 0008660 301.2113  58.8280 15.34063780517027
COSMOS 2507             
1 40920U 15050A   25022.49039941  .00000034  00000+0  17136-3 0  9993
2 40920  82.4907  37.5941 0009934  30.1195 330.0454 12.42903951423419
COSMOS 2508             
1 40921U 15050B   25022.43979602  .00000039  00000+0  20647-3 0  9991
2 40921  82.4860  36.3230 0014910  60.7758 299.4810 12.42888780423393
COSMOS 2509             
1 40922U 15050C   25022.46514664  .00000038  00000+0  20399-3 0  9991
2 40922  82.4862  36.3906 0017381  73.1689 287.1296 12.42895412423439
LAPAN-A2                
1 40931U 15052B   25020.20147130  .00001860  00000+0  16130-3 0  9995
2 40931   5.9986 241.3177 0013325 280.8560  79.0069 14.78521742503622
LQSAT                   
1 40958U 15057A   25022.49140023  .00001737  00000+0  26055-3 0  9996
2 40958  97.6594  37.1025 0018554 127.0852 233.2058 14.75661713499965
LINGQIAO VIDEO A        
1 40959U 15057B   25022.50580780  .00002343  00000+0  34532-3 0  9990
2 40959  97.6575  38.3683 0018451 125.9582 234.3343 14.76116386500033
LINGQIAO VIDEO B        
1 40960U 15057C   25022.51119356  .00002015  00000+0  29714-3 0  9992
2 40960  97.6573  39.5917 0018561 126.1418 234.1514 14.76230183500073
JILIN-1                 
1 40961U 15057D   25022.49030496  .00001829  00000+0  26607-3 0  9997
2 40961  97.6573  42.7031 0018526 122.4402 237.8604 14.76936411500190
FOX-1A (AO-85)          
1 40967U 15058D   25022.48112885  .00010360  00000+0  88996-3 0  9995
2 40967  64.7770  61.1962 0179862 238.4369 119.9073 14.86154673 37535
SINOD-D 1               
1 40968U 15058E   25022.48742382  .00012970  00000+0  10454-2 0  9999
2 40968  64.7772  51.3218 0171393 237.4791 120.9662 14.89326542 40418
ELEKTRO-L 2             
1 41105U 15074A   25022.39238306 -.00000100  00000+0  00000+0 0  9993
2 41105   5.4000  76.8201 0003675 211.4363 320.5118  1.00271796 33387
TELEOS-1                
1 41169U 15077D   25022.13852895  .00081174  00000+0  12691-2 0  9994
2 41169  14.9781 302.8175 0003369 190.8547 169.1706 15.51905350504658
DAMPE                   
1 41173U 15078A   25022.46214582  .00003258  00000+0  11928-3 0  9991
2 41173  97.4434  21.4950 0014337  87.5004 272.7877 15.28674030506469
